{
  "type": "FeatureCollection",
  "features": [
    {
      "type": "Feature",
      "properties": {
        "norad_id": 30494,
        "name": "FENGYUN 1C DEB",
        "group": "fengyun-1c-debris",
        "lat": 70.88006149802618,
        "lon": -136.54635604356406,
        "alt_km": 1052.3759303604847,
        "timestamp": "2025-12-05T18:53:13.558685+00:00",
        "meta_object_name": "FENGYUN 1C DEB",
        "meta_object_id": "1999-025AHG",
        "meta_epoch": "2025-12-03T08:54:16.401024",
        "meta_mean_motion": 13.79322889,
        "meta_eccentricity": 0.0185497,
        "meta_inclination": 99.2834,
        "meta_ra_of_asc_node": 12.9341,
        "meta_arg_of_pericenter": 246.9804,
        "meta_mean_anomaly": 111.1691,
        "meta_ephemeris_type": 0,
        "meta_classification_type": "U",
        "meta_norad_cat_id": 30494,
        "meta_element_set_no": 999,
        "meta_rev_at_epoch": 94357,
        "meta_bstar": 0.0020822,
        "meta_mean_motion_dot": 2.387e-05,
        "meta_mean_motion_ddot": 0,
        "tle_line1": "1 30494U 99025AHG 25337.37102316  .00002387  00000+0  20822-2 0  9993",
        "tle_line2": "2 30494  99.2834  12.9341 0185497 246.9804 111.1691 13.79322889943574"
      },
      "geometry": {
        "type": "Point",
        "coordinates": [
          -136.54635604356406,
          70.88006149802618
        ]
      }
    },
    {
      "type": "Feature",
      "properties": {
        "norad_id": 30495,
        "name": "FENGYUN 1C DEB",
        "group": "fengyun-1c-debris",
        "lat": 67.19650471095723,
        "lon": 36.57621339246973,
        "alt_km": 1665.2145293125868,
        "timestamp": "2025-12-05T18:53:13.558695+00:00",
        "meta_object_name": "FENGYUN 1C DEB",
        "meta_object_id": "1999-025AHH",
        "meta_epoch": "2025-12-03T12:42:43.025760",
        "meta_mean_motion": 12.9432737,
        "meta_eccentricity": 0.05963109,
        "meta_inclination": 102.2617,
        "meta_ra_of_asc_node": 65.1943,
        "meta_arg_of_pericenter": 285.4927,
        "meta_mean_anomaly": 68.1109,
        "meta_ephemeris_type": 0,
        "meta_classification_type": "U",
        "meta_norad_cat_id": 30495,
        "meta_element_set_no": 999,
        "meta_rev_at_epoch": 88554,
        "meta_bstar": 0.0035428862,
        "meta_mean_motion_dot": 2.155e-05,
        "meta_mean_motion_ddot": 0,
        "tle_line1": "1 30495U 99025AHH 25337.52966465  .00002155  00000+0  35429-2 0  9996",
        "tle_line2": "2 30495 102.2617  65.1943 0596310 285.4927  68.1109 12.94327370885544"
      },
      "geometry": {
        "type": "Point",
        "coordinates": [
          36.57621339246973,
          67.19650471095723
        ]
      }
    },
    {
      "type": "Feature",
      "properties": {
        "norad_id": 30496,
        "name": "FENGYUN 1C DEB",
        "group": "fengyun-1c-debris",
        "lat": -13.51993477594081,
        "lon": -113.06242819784946,
        "alt_km": 651.1225216325156,
        "timestamp": "2025-12-05T18:53:13.558705+00:00",
        "meta_object_name": "FENGYUN 1C DEB",
        "meta_object_id": "1999-025AHJ",
        "meta_epoch": "2025-12-04T23:39:42.415776",
        "meta_mean_motion": 14.94106967,
        "meta_eccentricity": 0.01301479,
        "meta_inclination": 98.7834,
        "meta_ra_of_asc_node": 243.9117,
        "meta_arg_of_pericenter": 122.271,
        "meta_mean_anomaly": 239.1195,
        "meta_ephemeris_type": 0,
        "meta_classification_type": "U",
        "meta_norad_cat_id": 30496,
        "meta_element_set_no": 999,
        "meta_rev_at_epoch": 1028,
        "meta_bstar": 0.0010654746,
        "meta_mean_motion_dot": 0.00013412,
        "meta_mean_motion_ddot": 0,
        "tle_line1": "1 30496U 99025AHJ 25338.98590759  .00013412  00000+0  10655-2 0  9999",
        "tle_line2": "2 30496  98.7834 243.9117 0130147 122.2710 239.1195 14.94106967 10289"
      },
      "geometry": {
        "type": "Point",
        "coordinates": [
          -113.06242819784946,
          -13.51993477594081
        ]
      }
    },
    {
      "type": "Feature",
      "properties": {
        "norad_id": 30498,
        "name": "FENGYUN 1C DEB",
        "group": "fengyun-1c-debris",
        "lat": 28.772272740509113,
        "lon": -144.09664466738363,
        "alt_km": 801.9630372937418,
        "timestamp": "2025-12-05T18:53:13.558716+00:00",
        "meta_object_name": "FENGYUN 1C DEB",
        "meta_object_id": "1999-025AHL",
        "meta_epoch": "2025-12-05T03:04:13.158048",
        "meta_mean_motion": 14.05996602,
        "meta_eccentricity": 0.01048898,
        "meta_inclination": 99.2383,
        "meta_ra_of_asc_node": 30.1039,
        "meta_arg_of_pericenter": 176.413,
        "meta_mean_anomaly": 240.851,
        "meta_ephemeris_type": 0,
        "meta_classification_type": "U",
        "meta_norad_cat_id": 30498,
        "meta_element_set_no": 999,
        "meta_rev_at_epoch": 95662,
        "meta_bstar": 0.003565081,
        "meta_mean_motion_dot": 6.1e-05,
        "meta_mean_motion_ddot": 0,
        "tle_line1": "1 30498U 99025AHL 25339.12793007  .00006100  00000+0  35651-2 0  9998",
        "tle_line2": "2 30498  99.2383  30.1039 0104889 176.4130 240.8510 14.05996602956628"
      },
      "geometry": {
        "type": "Point",
        "coordinates": [
          -144.09664466738363,
          28.772272740509113
        ]
      }
    },
    {
      "type": "Feature",
      "properties": {
        "norad_id": 30500,
        "name": "FENGYUN 1C DEB",
        "group": "fengyun-1c-debris",
        "lat": -71.52791027255957,
        "lon": -137.5342389931736,
        "alt_km": 837.2733834090714,
        "timestamp": "2025-12-05T18:53:13.558726+00:00",
        "meta_object_name": "FENGYUN 1C DEB",
        "meta_object_id": "1999-025AHN",
        "meta_epoch": "2025-12-04T23:26:05.368992",
        "meta_mean_motion": 14.25046181,
        "meta_eccentricity": 0.00656582,
        "meta_inclination": 99.0733,
        "meta_ra_of_asc_node": 70.2066,
        "meta_arg_of_pericenter": 138.3425,
        "meta_mean_anomaly": 279.0356,
        "meta_ephemeris_type": 0,
        "meta_classification_type": "U",
        "meta_norad_cat_id": 30500,
        "meta_element_set_no": 999,
        "meta_rev_at_epoch": 96571,
        "meta_bstar": 0.0059682384,
        "meta_mean_motion_dot": 0.00014281,
        "meta_mean_motion_ddot": 0,
        "tle_line1": "1 30500U 99025AHN 25338.97645103  .00014281  00000+0  59682-2 0  9996",
        "tle_line2": "2 30500  99.0733  70.2066 0065658 138.3425 279.0356 14.25046181965710"
      },
      "geometry": {
        "type": "Point",
        "coordinates": [
          -137.5342389931736,
          -71.52791027255957
        ]
      }
    },
    {
      "type": "Feature",
      "properties": {
        "norad_id": 30501,
        "name": "FENGYUN 1C DEB",
        "group": "fengyun-1c-debris",
        "lat": -15.73281928363454,
        "lon": 147.76475851459995,
        "alt_km": 786.5225009469032,
        "timestamp": "2025-12-05T18:53:13.558736+00:00",
        "meta_object_name": "FENGYUN 1C DEB",
        "meta_object_id": "1999-025AHP",
        "meta_epoch": "2025-12-03T11:08:58.771104",
        "meta_mean_motion": 14.25222339,
        "meta_eccentricity": 0.00405934,
        "meta_inclination": 99.0837,
        "meta_ra_of_asc_node": 327.9446,
        "meta_arg_of_pericenter": 230.2055,
        "meta_mean_anomaly": 296.6562,
        "meta_ephemeris_type": 0,
        "meta_classification_type": "U",
        "meta_norad_cat_id": 30501,
        "meta_element_set_no": 999,
        "meta_rev_at_epoch": 96787,
        "meta_bstar": 0.0023931219,
        "meta_mean_motion_dot": 5.63e-05,
        "meta_mean_motion_ddot": 0,
        "tle_line1": "1 30501U 99025AHP 25337.46456911  .00005630  00000+0  23931-2 0  9993",
        "tle_line2": "2 30501  99.0837 327.9446 0040593 230.2055 296.6562 14.25222339967876"
      },
      "geometry": {
        "type": "Point",
        "coordinates": [
          147.76475851459995,
          -15.73281928363454
        ]
      }
    },
    {
      "type": "Feature",
      "properties": {
        "norad_id": 30503,
        "name": "FENGYUN 1C DEB",
        "group": "fengyun-1c-debris",
        "lat": -75.42323254506505,
        "lon": -138.3487044222663,
        "alt_km": 839.7723800069816,
        "timestamp": "2025-12-05T18:53:13.558746+00:00",
        "meta_object_name": "FENGYUN 1C DEB",
        "meta_object_id": "1999-025AHR",
        "meta_epoch": "2025-12-04T06:15:42.547968",
        "meta_mean_motion": 14.16110792,
        "meta_eccentricity": 0.0008422,
        "meta_inclination": 99.2051,
        "meta_ra_of_asc_node": 181.4974,
        "meta_arg_of_pericenter": 292.5019,
        "meta_mean_anomaly": 133.3576,
        "meta_ephemeris_type": 0,
        "meta_classification_type": "U",
        "meta_norad_cat_id": 30503,
        "meta_element_set_no": 999,
        "meta_rev_at_epoch": 97226,
        "meta_bstar": 0.00050846,
        "meta_mean_motion_dot": 9.58e-06,
        "meta_mean_motion_ddot": 0,
        "tle_line1": "1 30503U 99025AHR 25338.26090912  .00000958  00000+0  50846-3 0  9993",
        "tle_line2": "2 30503  99.2051 181.4974 0008422 292.5019 133.3576 14.16110792972263"
      },
      "geometry": {
        "type": "Point",
        "coordinates": [
          -138.3487044222663,
          -75.42323254506505
        ]
      }
    }
  ]
}